<?xml version="1.0" encoding="UTF-8"?>
<gpx version="1.1" creator="MotoGPSTrack" xmlns="http://www.topografix.com/GPX/1/1">
  <metadata>
    <name>Transpirenaica España 5 días 2026 (v2, con Ordesa)</name>
  </metadata>
  <rte>
    <name>Día 1: Girona - Vielha</name>
    <rtept lat="41.9794" lon="2.8214"><name>Girona (salida)</name></rtept>
    <rtept lat="42.1817" lon="2.49"><name>Olot</name></rtept>
    <rtept lat="42.2011" lon="2.1904"><name>Ripoll</name></rtept>
    <rtept lat="42.4326" lon="1.9285"><name>Puigcerdà</name></rtept>
    <rtept lat="42.3585" lon="1.4609"><name>La Seu d'Urgell</name></rtept>
    <rtept lat="42.4131" lon="1.13"><name>Sort</name></rtept>
    <rtept lat="42.6197" lon="1.12"><name>Esterri d'Àneu</name></rtept>
    <rtept lat="42.6986" lon="0.9908"><name>Port de la Bonaigua</name></rtept>
    <rtept lat="42.7027" lon="0.7967"><name>Vielha</name></rtept>
  </rte>
  <rte>
    <name>Día 2: Vielha - Sallent de Gállego (puertos franceses)</name>
    <rtept lat="42.7027" lon="0.7967"><name>Vielha</name></rtept>
    <rtept lat="42.7897" lon="0.5947"><name>Bagnères-de-Luchon</name></rtept>
    <rtept lat="42.7967" lon="0.4494"><name>Col de Peyresourde</name></rtept>
    <rtept lat="42.9364" lon="0.3286"><name>Col d'Aspin</name></rtept>
    <rtept lat="42.9106" lon="0.1447"><name>Col du Tourmalet</name></rtept>
    <rtept lat="42.8814" lon="-0.0064"><name>Luz-Saint-Sauveur</name></rtept>
    <rtept lat="42.9814" lon="-0.2081"><name>Col du Soulor</name></rtept>
    <rtept lat="42.9767" lon="-0.3392"><name>Col d'Aubisque</name></rtept>
    <rtept lat="42.9236" lon="-0.3653"><name>Eaux-Chaudes</name></rtept>
    <rtept lat="42.8083" lon="-0.4358"><name>Col du Pourtalet</name></rtept>
    <rtept lat="42.7761" lon="-0.3833"><name>Formigal</name></rtept>
    <rtept lat="42.7719" lon="-0.3336"><name>Sallent de Gállego</name></rtept>
  </rte>
  <rte>
    <name>Día 3: Sallent de Gállego - Isaba</name>
    <rtept lat="42.7719" lon="-0.3336"><name>Sallent de Gállego</name></rtept>
    <rtept lat="42.6167" lon="-0.3167"><name>Biescas</name></rtept>
    <rtept lat="42.57" lon="-0.55"><name>Jaca</name></rtept>
    <rtept lat="42.7186" lon="-0.7503"><name>Hecho</name></rtept>
    <rtept lat="42.7539" lon="-0.7997"><name>Ansó</name></rtept>
    <rtept lat="42.7897" lon="-0.9578"><name>Roncal</name></rtept>
    <rtept lat="42.8664" lon="-0.8783"><name>Isaba</name></rtept>
    <rtept lat="42.97" lon="-0.81"><name>Belagua</name></rtept>
    <rtept lat="42.9833" lon="-0.755"><name>Venta de Juan Pito</name></rtept>
    <rtept lat="42.8664" lon="-0.8783"><name>Isaba (noche)</name></rtept>
  </rte>
  <rte>
    <name>Día 4: Isaba - Aínsa, vía Sigüés/Berdún/Sabiñánigo y Ordesa</name>
    <rtept lat="42.8664" lon="-0.8783"><name>Isaba (noche)</name></rtept>
    <rtept lat="42.6303" lon="-1.0118"><name>Sigüés</name></rtept>
    <rtept lat="42.6033" lon="-0.8586"><name>Berdún</name></rtept>
    <rtept lat="42.5192" lon="-0.3608"><name>Sabiñánigo</name></rtept>
    <rtept lat="42.6167" lon="-0.3167"><name>Biescas</name></rtept>
    <rtept lat="42.6033" lon="-0.1218"><name>Broto (Ordesa)</name></rtept>
    <rtept lat="42.4955" lon="-0.1198"><name>Fiscal</name></rtept>
    <rtept lat="42.446" lon="0.0676"><name>Boltaña</name></rtept>
    <rtept lat="42.4159" lon="0.1381"><name>Aínsa</name></rtept>
  </rte>
  <rte>
    <name>Día 5: Aínsa - Girona</name>
    <rtept lat="42.4159" lon="0.1381"><name>Aínsa</name></rtept>
    <rtept lat="42.4167" lon="0.4"><name>Campo</name></rtept>
    <rtept lat="42.1006" lon="0.4767"><name>Benabarre</name></rtept>
    <rtept lat="42.1667" lon="0.8944"><name>Tremp</name></rtept>
    <rtept lat="41.9126" lon="1.1913"><name>Ponts</name></rtept>
    <rtept lat="41.9794" lon="2.8214"><name>Girona (llegada)</name></rtept>
  </rte>
</gpx>
